start=new Date('2023-05-01T00:00:00.000Z').valueOf();
sats=[{"FILE":"3897442","RA_OF_ASC_NODE":"219.1632","MEAN_MOTION":"15.06377178","TLE_LINE2":"2 47731  53.0525 219.1632 0001097  68.8109 291.2997 15.06377178120352","REV_AT_EPOCH":"12035","DECAY_DATE":null,"MEAN_MOTION_DOT":"0.00011231","MEAN_ELEMENT_THEORY":"SGP4","REF_FRAME":"TEME","OBJECT_TYPE":"PAYLOAD","GP_ID":"230975450","APOAPSIS":"548.043","MEAN_MOTION_DDOT":"0.0000000000000","OBJECT_ID":"2021-017K","TLE_LINE1":"1 47731U 21017K   23120.50001998  .00011231  00000-0  77214-3 0  9995","LAUNCH_DATE":"2021-03-04","CLASSIFICATION_TYPE":"U","NORAD_CAT_ID":"47731","TIME_SYSTEM":"UTC","CENTER_NAME":"EARTH","COUNTRY_CODE":"US","EPHEMERIS_TYPE":"0","ELEMENT_SET_NO":"999","EPOCH":"2023-04-30T12:00:01.726272","ECCENTRICITY":"0.00010970","SEMIMAJOR_AXIS":"6925.419","BSTAR":"0.00077214000000","RCS_SIZE":"LARGE","MEAN_ANOMALY":"291.2997","PERIOD":"95.594","INCLINATION":"53.0525","OBJECT_NAME":"STARLINK-2141","ARG_OF_PERICENTER":"68.8109","SITE":"AFETR","PERIAPSIS":"546.524"},{"GP_ID":"230976201","OBJECT_TYPE":"PAYLOAD","OBJECT_ID":"2021-017L","MEAN_MOTION_DDOT":"0.0000000000000","APOAPSIS":"548.583","CLASSIFICATION_TYPE":"U","TLE_LINE1":"1 47732U 21017L   23120.53919949  .00002955  00000-0  21721-3 0  9998","LAUNCH_DATE":"2021-03-04","NORAD_CAT_ID":"47732","CENTER_NAME":"EARTH","TIME_SYSTEM":"UTC","RA_OF_ASC_NODE":"134.2274","FILE":"3897442","REV_AT_EPOCH":"12154","TLE_LINE2":"2 47732  53.0526 134.2274 0001947  77.5876 282.5331 15.06393160121541","MEAN_MOTION":"15.06393160","MEAN_MOTION_DOT":"0.00002955","DECAY_DATE":null,"MEAN_ELEMENT_THEORY":"SGP4","REF_FRAME":"TEME","RCS_SIZE":"LARGE","INCLINATION":"53.0526","PERIOD":"95.593","MEAN_ANOMALY":"282.5331","ARG_OF_PERICENTER":"77.5876","OBJECT_NAME":"STARLINK-2142","SITE":"AFETR","PERIAPSIS":"545.886","COUNTRY_CODE":"US","EPHEMERIS_TYPE":"0","ECCENTRICITY":"0.00019470","EPOCH":"2023-04-30T12:56:26.835936","ELEMENT_SET_NO":"999","SEMIMAJOR_AXIS":"6925.370","BSTAR":"0.00021721000000"},{"MEAN_MOTION_DDOT":"0.0000000000000","APOAPSIS":"548.367","OBJECT_ID":"2021-017M","OBJECT_TYPE":"PAYLOAD","GP_ID":"230974449","NORAD_CAT_ID":"47733","LAUNCH_DATE":"2021-03-04","TLE_LINE1":"1 47733U 21017M   23120.55441470  .00008026  00000-0  55718-3 0  9998","CLASSIFICATION_TYPE":"U","TIME_SYSTEM":"UTC","CENTER_NAME":"EARTH","MEAN_MOTION":"15.06393460","TLE_LINE2":"2 47733  53.0539 228.9223 0001636  77.0694 283.0478 15.06393460120268","REV_AT_EPOCH":"12026","FILE":"3897442","RA_OF_ASC_NODE":"228.9223","MEAN_ELEMENT_THEORY":"SGP4","DECAY_DATE":null,"MEAN_MOTION_DOT":"0.00008026","REF_FRAME":"TEME","MEAN_ANOMALY":"283.0478","INCLINATION":"53.0539","PERIOD":"95.593","RCS_SIZE":"LARGE","OBJECT_NAME":"STARLINK-2143","ARG_OF_PERICENTER":"77.0694","SITE":"AFETR","PERIAPSIS":"546.101","EPHEMERIS_TYPE":"0","COUNTRY_CODE":"US","SEMIMAJOR_AXIS":"6925.369","ELEMENT_SET_NO":"999","EPOCH":"2023-04-30T13:18:21.430080","ECCENTRICITY":"0.00016360","BSTAR":"0.00055718000000"},{"REF_FRAME":"TEME","MEAN_ELEMENT_THEORY":"SGP4","MEAN_MOTION_DOT":"0.00016621","DECAY_DATE":null,"TLE_LINE2":"2 47734  53.0533 219.1318 0001484 105.1908 254.9245 15.06379109120366","REV_AT_EPOCH":"12036","MEAN_MOTION":"15.06379109","RA_OF_ASC_NODE":"219.1318","FILE":"3897442","TIME_SYSTEM":"UTC","CENTER_NAME":"EARTH","NORAD_CAT_ID":"47734","TLE_LINE1":"1 47734U 21017N   23120.50740055  .00016621  00000-0  11327-2 0  9992","CLASSIFICATION_TYPE":"U","LAUNCH_DATE":"2021-03-04","OBJECT_ID":"2021-017N","APOAPSIS":"548.305","MEAN_MOTION_DDOT":"0.0000000000000","GP_ID":"230974699","OBJECT_TYPE":"PAYLOAD","BSTAR":"0.00113270000000","SEMIMAJOR_AXIS":"6925.413","ECCENTRICITY":"0.00014840","ELEMENT_SET_NO":"999","EPOCH":"2023-04-30T12:10:39.407520","EPHEMERIS_TYPE":"0","COUNTRY_CODE":"US","PERIAPSIS":"546.250","SITE":"AFETR","ARG_OF_PERICENTER":"105.1908","OBJECT_NAME":"STARLINK-2144","PERIOD":"95.593","INCLINATION":"53.0533","MEAN_ANOMALY":"254.9245","RCS_SIZE":"LARGE"},{"BSTAR":"0.00015048000000","SEMIMAJOR_AXIS":"6925.346","ECCENTRICITY":"0.00014060","ELEMENT_SET_NO":"999","EPOCH":"2023-04-30T09:22:48.423072","EPHEMERIS_TYPE":"0","COUNTRY_CODE":"US","PERIAPSIS":"546.237","SITE":"AFETR","ARG_OF_PERICENTER":"97.1561","OBJECT_NAME":"STARLINK-2146","INCLINATION":"53.0530","PERIOD":"95.592","MEAN_ANOMALY":"262.9587","RCS_SIZE":"LARGE","REF_FRAME":"TEME","MEAN_ELEMENT_THEORY":"SGP4","MEAN_MOTION_DOT":"0.00001961","DECAY_DATE":null,"REV_AT_EPOCH":"12137","TLE_LINE2":"2 47735  53.0530 144.8164 0001406  97.1561 262.9587 15.06400893121371","MEAN_MOTION":"15.06400893","RA_OF_ASC_NODE":"144.8164","FILE":"3897442","CENTER_NAME":"EARTH","TIME_SYSTEM":"UTC","NORAD_CAT_ID":"47735","TLE_LINE1":"1 47735U 21017P   23120.39083823  .00001961  00000-0  15048-3 0  9999","LAUNCH_DATE":"2021-03-04","CLASSIFICATION_TYPE":"U","OBJECT_ID":"2021-017P","APOAPSIS":"548.185","MEAN_MOTION_DDOT":"0.0000000000000","GP_ID":"230975951","OBJECT_TYPE":"PAYLOAD"},{"PERIAPSIS":"546.356","SITE":"AFETR","OBJECT_NAME":"STARLINK-2147","ARG_OF_PERICENTER":"82.2905","MEAN_ANOMALY":"277.8229","PERIOD":"95.593","INCLINATION":"53.0545","RCS_SIZE":"LARGE","BSTAR":"0.00112360000000","SEMIMAJOR_AXIS":"6925.375","EPOCH":"2023-04-30T12:59:44.316096","ELEMENT_SET_NO":"999","ECCENTRICITY":"0.00012760","EPHEMERIS_TYPE":"0","COUNTRY_CODE":"US","TIME_SYSTEM":"UTC","CENTER_NAME":"EARTH","NORAD_CAT_ID":"47736","CLASSIFICATION_TYPE":"U","TLE_LINE1":"1 47736U 21017Q   23120.54148514  .00016490  00000-0  11236-2 0  9993","LAUNCH_DATE":"2021-03-04","APOAPSIS":"548.123","MEAN_MOTION_DDOT":"0.0000000000000","OBJECT_ID":"2021-017Q","OBJECT_TYPE":"PAYLOAD","GP_ID":"230975701","REF_FRAME":"TEME","MEAN_ELEMENT_THEORY":"SGP4","DECAY_DATE":null,"MEAN_MOTION_DOT":"0.00016490","MEAN_MOTION":"15.06391509","TLE_LINE2":"2 47736  53.0545 208.9803 0001276  82.2905 277.8229 15.06391509120541","REV_AT_EPOCH":"12054","FILE":"3897442","RA_OF_ASC_NODE":"208.9803"},{"MEAN_MOTION_DDOT":"0.0000000000000","APOAPSIS":"459.763","OBJECT_ID":"2021-017R","OBJECT_TYPE":"PAYLOAD","GP_ID":"230983135","NORAD_CAT_ID":"47737","CLASSIFICATION_TYPE":"U","TLE_LINE1":"1 47737U 21017R   23120.82246548 -.00001583  00000-0 -34044-4 0  9994","LAUNCH_DATE":"2021-03-04","TIME_SYSTEM":"UTC","CENTER_NAME":"EARTH","MEAN_MOTION":"15.35741886","REV_AT_EPOCH":"12194","TLE_LINE2":"2 47737  53.0546  63.3621 0001526 105.3609 254.7561 15.35741886121947","FILE":"3897570","RA_OF_ASC_NODE":"63.3621","MEAN_ELEMENT_THEORY":"SGP4","DECAY_DATE":null,"MEAN_MOTION_DOT":"-0.00001583","REF_FRAME":"TEME","MEAN_ANOMALY":"254.7561","PERIOD":"93.766","INCLINATION":"53.0546","RCS_SIZE":"LARGE","OBJECT_NAME":"STARLINK-2148","ARG_OF_PERICENTER":"105.3609","SITE":"AFETR","PERIAPSIS":"457.676","EPHEMERIS_TYPE":"0","COUNTRY_CODE":"US","SEMIMAJOR_AXIS":"6836.855","ELEMENT_SET_NO":"999","EPOCH":"2023-04-30T19:44:21.017472","ECCENTRICITY":"0.00015260","BSTAR":"-0.00003404400000"},{"RA_OF_ASC_NODE":"209.3699","FILE":"3897442","REV_AT_EPOCH":"12053","TLE_LINE2":"2 47738  53.0535 209.3699 0001323  88.7432 271.3709 15.06397254120533","MEAN_MOTION":"15.06397254","MEAN_MOTION_DOT":"0.00023478","DECAY_DATE":null,"MEAN_ELEMENT_THEORY":"SGP4","REF_FRAME":"TEME","GP_ID":"230975200","OBJECT_TYPE":"PAYLOAD","OBJECT_ID":"2021-017S","APOAPSIS":"548.138","MEAN_MOTION_DDOT":"0.0000000000000","TLE_LINE1":"1 47738U 21017S   23120.51572899  .00023478  00000-0  15899-2 0  9992","CLASSIFICATION_TYPE":"U","LAUNCH_DATE":"2021-03-04","NORAD_CAT_ID":"47738","TIME_SYSTEM":"UTC","CENTER_NAME":"EARTH","COUNTRY_CODE":"US","EPHEMERIS_TYPE":"0","ECCENTRICITY":"0.00013230","EPOCH":"2023-04-30T12:22:38.984736","ELEMENT_SET_NO":"999","SEMIMAJOR_AXIS":"6925.357","BSTAR":"0.00158990000000","RCS_SIZE":"LARGE","INCLINATION":"53.0535","PERIOD":"95.592","MEAN_ANOMALY":"271.3709","ARG_OF_PERICENTER":"88.7432","OBJECT_NAME":"STARLINK-2149","SITE":"AFETR","PERIAPSIS":"546.306"},{"COUNTRY_CODE":"US","EPHEMERIS_TYPE":"0","BSTAR":"0.00121100000000","ECCENTRICITY":"0.00014060","EPOCH":"2023-04-30T14:29:18.673440","ELEMENT_SET_NO":"999","SEMIMAJOR_AXIS":"6925.414","ARG_OF_PERICENTER":"96.6935","OBJECT_NAME":"STARLINK-2150","RCS_SIZE":"LARGE","INCLINATION":"53.0533","PERIOD":"95.594","MEAN_ANOMALY":"263.4214","PERIAPSIS":"546.306","SITE":"AFETR","MEAN_MOTION_DOT":"0.00017792","DECAY_DATE":null,"MEAN_ELEMENT_THEORY":"SGP4","RA_OF_ASC_NODE":"233.6978","FILE":"3897442","REV_AT_EPOCH":"12020","TLE_LINE2":"2 47739  53.0533 233.6978 0001406  96.6935 263.4214 15.06378553120208","MEAN_MOTION":"15.06378553","REF_FRAME":"TEME","TLE_LINE1":"1 47739U 21017T   23120.60368835  .00017792  00000-0  12110-2 0  9991","LAUNCH_DATE":"2021-03-04","CLASSIFICATION_TYPE":"U","NORAD_CAT_ID":"47739","GP_ID":"230975451","OBJECT_TYPE":"PAYLOAD","OBJECT_ID":"2021-017T","APOAPSIS":"548.253","MEAN_MOTION_DDOT":"0.0000000000000","CENTER_NAME":"EARTH","TIME_SYSTEM":"UTC"},{"ARG_OF_PERICENTER":"89.9851","OBJECT_NAME":"STARLINK-2152","INCLINATION":"53.0530","PERIOD":"95.594","MEAN_ANOMALY":"270.1280","RCS_SIZE":"LARGE","PERIAPSIS":"546.449","SITE":"AFETR","EPHEMERIS_TYPE":"0","COUNTRY_CODE":"US","BSTAR":"0.00148170000000","SEMIMAJOR_AXIS":"6925.445","ECCENTRICITY":"0.00012430","ELEMENT_SET_NO":"999","EPOCH":"2023-04-30T14:02:07.129536","NORAD_CAT_ID":"47740","LAUNCH_DATE":"2021-03-04","TLE_LINE1":"1 47740U 21017U   23120.58480474  .00021838  00000-0  14817-2 0  9996","CLASSIFICATION_TYPE":"U","OBJECT_ID":"2021-017U","APOAPSIS":"548.171","MEAN_MOTION_DDOT":"0.0000000000000","GP_ID":"230976202","OBJECT_TYPE":"PAYLOAD","TIME_SYSTEM":"UTC","CENTER_NAME":"EARTH","MEAN_ELEMENT_THEORY":"SGP4","MEAN_MOTION_DOT":"0.00021838","DECAY_DATE":null,"TLE_LINE2":"2 47740  53.0530 218.7853 0001243  89.9851 270.1280 15.06368541120400","REV_AT_EPOCH":"12040","MEAN_MOTION":"15.06368541","RA_OF_ASC_NODE":"218.7853","FILE":"3897442","REF_FRAME":"TEME"}];
